CCSDS_OMM_VERS = 2.0
CREATION_DATE  = 
ORIGINATOR     = 

OBJECT_NAME    = SL-14 R/B
OBJECT_ID      = 1986-046B
CENTER_NAME    = EARTH
REF_FRAME      = TEME
TIME_SYSTEM    = UTC
MEAN_ELEMENT_THEORY = SGP/SGP4

EPOCH          = 2025-12-31T20:16:13.039104
MEAN_MOTION    = 14.85509746
ECCENTRICITY   = .0024572
INCLINATION    = 82.4825
RA_OF_ASC_NODE = 144.2717
ARG_OF_PERICENTER = 92.2297
MEAN_ANOMALY   = 268.1733

EPHEMERIS_TYPE = 0
CLASSIFICATION_TYPE = U
NORAD_CAT_ID   = 16792
ELEMENT_SET_NO = 999
REV_AT_EPOCH   = 11633
BSTAR          = .10891E-3
MEAN_MOTION_DOT = .969E-5
MEAN_MOTION_DDOT = 0

CCSDS_OMM_VERS = 2.0
CREATION_DATE  = 
ORIGINATOR     = 

OBJECT_NAME    = SL-14 R/B
OBJECT_ID      = 1986-055B
CENTER_NAME    = EARTH
REF_FRAME      = TEME
TIME_SYSTEM    = UTC
MEAN_ELEMENT_THEORY = SGP/SGP4

EPOCH          = 2025-12-31T22:04:37.880832
MEAN_MOTION    = 14.85553176
ECCENTRICITY   = .0018525
INCLINATION    = 82.5197
RA_OF_ASC_NODE = 190.3495
ARG_OF_PERICENTER = 192.1969
MEAN_ANOMALY   = 284.0874

EPHEMERIS_TYPE = 0
CLASSIFICATION_TYPE = U
NORAD_CAT_ID   = 16882
ELEMENT_SET_NO = 999
REV_AT_EPOCH   = 10930
BSTAR          = .103E-3
MEAN_MOTION_DOT = .917E-5
MEAN_MOTION_DDOT = 0

CCSDS_OMM_VERS = 2.0
CREATION_DATE  = 
ORIGINATOR     = 

OBJECT_NAME    = AJISAI (EGS)
OBJECT_ID      = 1986-061A
CENTER_NAME    = EARTH
REF_FRAME      = TEME
TIME_SYSTEM    = UTC
MEAN_ELEMENT_THEORY = SGP/SGP4

EPOCH          = 2026-01-01T04:40:51.121632
MEAN_MOTION    = 12.44514520
ECCENTRICITY   = .0011323
INCLINATION    = 50.0107
RA_OF_ASC_NODE = 300.8944
ARG_OF_PERICENTER = 114.7194
MEAN_ANOMALY   = 33.9393

EPHEMERIS_TYPE = 0
CLASSIFICATION_TYPE = U
NORAD_CAT_ID   = 16908
ELEMENT_SET_NO = 999
REV_AT_EPOCH   = 45959
BSTAR          = .66957E-4
MEAN_MOTION_DOT = -.88E-6
MEAN_MOTION_DDOT = 0

CCSDS_OMM_VERS = 2.0
CREATION_DATE  = 
ORIGINATOR     = 

OBJECT_NAME    = COSMOS 1812
OBJECT_ID      = 1987-003A
CENTER_NAME    = EARTH
REF_FRAME      = TEME
TIME_SYSTEM    = UTC
MEAN_ELEMENT_THEORY = SGP/SGP4

EPOCH          = 2026-01-01T03:22:08.869152
MEAN_MOTION    = 15.80107352
ECCENTRICITY   = .0005186
INCLINATION    = 82.4870
RA_OF_ASC_NODE = 270.9522
ARG_OF_PERICENTER = 63.0049
MEAN_ANOMALY   = 297.1747

EPHEMERIS_TYPE = 0
CLASSIFICATION_TYPE = U
NORAD_CAT_ID   = 17295
ELEMENT_SET_NO = 999
REV_AT_EPOCH   = 13371
BSTAR          = .83128E-3
MEAN_MOTION_DOT = .157045E-2
MEAN_MOTION_DDOT = 0

CCSDS_OMM_VERS = 2.0
CREATION_DATE  = 
ORIGINATOR     = 

OBJECT_NAME    = SL-14 R/B
OBJECT_ID      = 1987-024B
CENTER_NAME    = EARTH
REF_FRAME      = TEME
TIME_SYSTEM    = UTC
MEAN_ELEMENT_THEORY = SGP/SGP4

EPOCH          = 2025-12-31T21:39:46.634112
MEAN_MOTION    = 14.86048850
ECCENTRICITY   = .0019445
INCLINATION    = 82.5284
RA_OF_ASC_NODE = 156.4527
ARG_OF_PERICENTER = 122.8825
MEAN_ANOMALY   = 237.4266

EPHEMERIS_TYPE = 0
CLASSIFICATION_TYPE = U
NORAD_CAT_ID   = 17567
ELEMENT_SET_NO = 999
REV_AT_EPOCH   = 7806
BSTAR          = .1119E-3
MEAN_MOTION_DOT = .1006E-4
MEAN_MOTION_DDOT = 0

CCSDS_OMM_VERS = 2.0
CREATION_DATE  = 
ORIGINATOR     = 

OBJECT_NAME    = COSMOS 1833
OBJECT_ID      = 1987-027A
CENTER_NAME    = EARTH
REF_FRAME      = TEME
TIME_SYSTEM    = UTC
MEAN_ELEMENT_THEORY = SGP/SGP4

EPOCH          = 2025-12-31T16:33:13.684608
MEAN_MOTION    = 14.13032989
ECCENTRICITY   = .002342
INCLINATION    = 70.9178
RA_OF_ASC_NODE = 108.9430
ARG_OF_PERICENTER = 305.3649
MEAN_ANOMALY   = 54.5284

EPHEMERIS_TYPE = 0
CLASSIFICATION_TYPE = U
NORAD_CAT_ID   = 17589
ELEMENT_SET_NO = 999
REV_AT_EPOCH   = 71
BSTAR          = .20410865E-3
MEAN_MOTION_DOT = .334E-5
MEAN_MOTION_DDOT = 0

CCSDS_OMM_VERS = 2.0
CREATION_DATE  = 
ORIGINATOR     = 

OBJECT_NAME    = SL-16 R/B
OBJECT_ID      = 1987-027B
CENTER_NAME    = EARTH
REF_FRAME      = TEME
TIME_SYSTEM    = UTC
MEAN_ELEMENT_THEORY = SGP/SGP4

EPOCH          = 2026-01-01T03:25:33.776256
MEAN_MOTION    = 14.17155972
ECCENTRICITY   = .0007046
INCLINATION    = 71.0032
RA_OF_ASC_NODE = 58.8331
ARG_OF_PERICENTER = 239.4261
MEAN_ANOMALY   = 120.6168

EPHEMERIS_TYPE = 0
CLASSIFICATION_TYPE = U
NORAD_CAT_ID   = 17590
ELEMENT_SET_NO = 999
REV_AT_EPOCH   = 577
BSTAR          = -.14347E-4
MEAN_MOTION_DOT = -.77E-6
MEAN_MOTION_DDOT = 0

CCSDS_OMM_VERS = 2.0
CREATION_DATE  = 
ORIGINATOR     = 

OBJECT_NAME    = SL-14 R/B
OBJECT_ID      = 1987-038B
CENTER_NAME    = EARTH
REF_FRAME      = TEME
TIME_SYSTEM    = UTC
MEAN_ELEMENT_THEORY = SGP/SGP4

EPOCH          = 2025-12-31T23:56:18.333024
MEAN_MOTION    = 14.85283504
ECCENTRICITY   = .002015
INCLINATION    = 82.5010
RA_OF_ASC_NODE = 0.5601
ARG_OF_PERICENTER = 32.5393
MEAN_ANOMALY   = 327.7060

EPHEMERIS_TYPE = 0
CLASSIFICATION_TYPE = U
NORAD_CAT_ID   = 17912
ELEMENT_SET_NO = 999
REV_AT_EPOCH   = 6918
BSTAR          = .10534E-3
MEAN_MOTION_DOT = .931E-5
MEAN_MOTION_DDOT = 0

CCSDS_OMM_VERS = 2.0
CREATION_DATE  = 
ORIGINATOR     = 

OBJECT_NAME    = COSMOS 1844
OBJECT_ID      = 1987-041A
CENTER_NAME    = EARTH
REF_FRAME      = TEME
TIME_SYSTEM    = UTC
MEAN_ELEMENT_THEORY = SGP/SGP4

EPOCH          = 2025-12-31T20:49:03.829152
MEAN_MOTION    = 14.14536870
ECCENTRICITY   = .0029043
INCLINATION    = 70.8983
RA_OF_ASC_NODE = 177.2277
ARG_OF_PERICENTER = 126.8239
MEAN_ANOMALY   = 233.5553

EPHEMERIS_TYPE = 0
CLASSIFICATION_TYPE = U
NORAD_CAT_ID   = 17973
ELEMENT_SET_NO = 999
REV_AT_EPOCH   = 99399
BSTAR          = .18158E-3
MEAN_MOTION_DOT = .302E-5
MEAN_MOTION_DDOT = 0

CCSDS_OMM_VERS = 2.0
CREATION_DATE  = 
ORIGINATOR     = 

OBJECT_NAME    = SL-14 R/B
OBJECT_ID      = 1987-055B
CENTER_NAME    = EARTH
REF_FRAME      = TEME
TIME_SYSTEM    = UTC
MEAN_ELEMENT_THEORY = SGP/SGP4

EPOCH          = 2026-01-01T04:30:45.008352
MEAN_MOTION    = 14.85544024
ECCENTRICITY   = .0019439
INCLINATION    = 82.4984
RA_OF_ASC_NODE = 52.6581
ARG_OF_PERICENTER = 234.3546
MEAN_ANOMALY   = 125.5861

EPHEMERIS_TYPE = 0
CLASSIFICATION_TYPE = U
NORAD_CAT_ID   = 18153
ELEMENT_SET_NO = 999
REV_AT_EPOCH   = 5991
BSTAR          = .91042E-4
MEAN_MOTION_DOT = .813E-5
MEAN_MOTION_DDOT = 0

CCSDS_OMM_VERS = 2.0
CREATION_DATE  = 
ORIGINATOR     = 

OBJECT_NAME    = COSMOS 1867
OBJECT_ID      = 1987-060A
CENTER_NAME    = EARTH
REF_FRAME      = TEME
TIME_SYSTEM    = UTC
MEAN_ELEMENT_THEORY = SGP/SGP4

EPOCH          = 2025-12-31T17:52:59.627712
MEAN_MOTION    = 14.31490013
ECCENTRICITY   = .00137836
INCLINATION    = 65.0102
RA_OF_ASC_NODE = 136.9797
ARG_OF_PERICENTER = 273.0746
MEAN_ANOMALY   = 86.8761

EPHEMERIS_TYPE = 0
CLASSIFICATION_TYPE = U
NORAD_CAT_ID   = 18187
ELEMENT_SET_NO = 999
REV_AT_EPOCH   = 1021
BSTAR          = .58951029E-4
MEAN_MOTION_DOT = .57E-6
MEAN_MOTION_DDOT = 0

CCSDS_OMM_VERS = 2.0
CREATION_DATE  = 
ORIGINATOR     = 

OBJECT_NAME    = SL-14 R/B
OBJECT_ID      = 1988-001B
CENTER_NAME    = EARTH
REF_FRAME      = TEME
TIME_SYSTEM    = UTC
MEAN_ELEMENT_THEORY = SGP/SGP4

EPOCH          = 2026-01-01T04:17:38.393376
MEAN_MOTION    = 14.85446880
ECCENTRICITY   = .0019583
INCLINATION    = 82.5130
RA_OF_ASC_NODE = 258.8650
ARG_OF_PERICENTER = 100.6544
MEAN_ANOMALY   = 259.6879

EPHEMERIS_TYPE = 0
CLASSIFICATION_TYPE = U
NORAD_CAT_ID   = 18749
ELEMENT_SET_NO = 999
REV_AT_EPOCH   = 3200
BSTAR          = .9122E-4
MEAN_MOTION_DOT = .813E-5
MEAN_MOTION_DDOT = 0

