SL-14 R/B               
1 16792U 86046B   25365.84459536  .00000969  00000+0  10891-3 0  9999
2 16792  82.4825 144.2717 0024572  92.2297 268.1733 14.85509746116336
SL-14 R/B               
1 16882U 86055B   25365.91988288  .00000917  00000+0  10300-3 0  9996
2 16882  82.5197 190.3495 0018525 192.1969 284.0874 14.85553176109309
AJISAI (EGS)            
1 16908U 86061A   26001.19503613 -.00000088  00000+0  66957-4 0  9995
2 16908  50.0107 300.8944 0011323 114.7194  33.9393 12.44514520459594
COSMOS 1812             
1 17295U 87003A   26001.14038043  .00157045  00000+0  83128-3 0  9990
2 17295  82.4870 270.9522 0005186  63.0049 297.1747 15.80107352133718
SL-14 R/B               
1 17567U 87024B   25365.90262308  .00001006  00000+0  11190-3 0  9999
2 17567  82.5284 156.4527 0019445 122.8825 237.4266 14.86048850 78063
COSMOS 1833             
1 17589U 87027A   25365.68974172  .00000334  00000+0  20411-3 0  9999
2 17589  70.9178 108.9430 0023420 305.3649  54.5284 14.13032989   716
SL-16 R/B               
1 17590U 87027B   26001.14275204 -.00000077  00000+0 -14347-4 0  9998
2 17590  71.0032  58.8331 0007046 239.4261 120.6168 14.17155972  5774
SL-14 R/B               
1 17912U 87038B   25365.99743441  .00000931  00000+0  10534-3 0  9996
2 17912  82.5010   0.5601 0020150  32.5393 327.7060 14.85283504 69182
COSMOS 1844             
1 17973U 87041A   25365.86740543  .00000302  00000+0  18158-3 0  9995
2 17973  70.8983 177.2277 0029043 126.8239 233.5553 14.14536870993990
SL-14 R/B               
1 18153U 87055B   26001.18802093  .00000813  00000+0  91042-4 0  9994
2 18153  82.4984  52.6581 0019439 234.3546 125.5861 14.85544024 59914
COSMOS 1867             
1 18187U 87060A   25365.74513458  .00000057  00000+0  58951-4 0  9997
2 18187  65.0102 136.9797 0013783 273.0746  86.8761 14.31490013 10210
SL-14 R/B               
1 18749U 88001B   26001.17891659  .00000813  00000+0  91220-4 0  9990
2 18749  82.5130 258.8650 0019583 100.6544 259.6879 14.85446880 32009
